{
  "norad_id": 38041,
  "name": "GLOBALSTAR M080",
  "history": [
    {
      "epoch": "2026-03-28T21:22:15.860640",
      "apogee_km": 1414.5573460797596,
      "perigee_km": 1412.6380859845058,
      "latitude_deg": 48.900353817203204,
      "longitude_deg": -130.41571039985865,
      "semi_major_axis_km": 7791.734716032132,
      "eccentricity": 0.00012316,
      "inclination_deg": 52.0049,
      "raan_deg": 263.4262,
      "arg_perigee_deg": 96.148,
      "mean_anomaly_deg": 67.5707,
      "mean_motion_rev_day": 12.62267863
    }
  ]
}